[{"OBJECT_NAME":"STARLINK-2225","OBJECT_ID":"2021-041X","EPOCH":"2026-03-10T00:00:02.999808","MEAN_MOTION":15.27069763,"ECCENTRICITY":0.00014642,"INCLINATION":53.1456,"RA_OF_ASC_NODE":99.5289,"ARG_OF_PERICENTER":89.1304,"MEAN_ANOMALY":151.4925,"EPHEMERIS_TYPE":0,"CLASSIFICATION_TYPE":"U","NORAD_CAT_ID":48574,"ELEMENT_SET_NO":999,"REV_AT_EPOCH":574,"BSTAR":0.059549049,"MEAN_MOTION_DOT":0.01753094,"MEAN_MOTION_DDOT":0},{"OBJECT_NAME":"OBJECT R","OBJECT_ID":"2018-111R","EPOCH":"2026-03-09T23:55:12.472032","MEAN_MOTION":15.36792156,"ECCENTRICITY":0.00179753,"INCLINATION":97.014,"RA_OF_ASC_NODE":269.2496,"ARG_OF_PERICENTER":268.8687,"MEAN_ANOMALY":91.0499,"EPHEMERIS_TYPE":0,"CLASSIFICATION_TYPE":"U","NORAD_CAT_ID":43891,"ELEMENT_SET_NO":999,"REV_AT_EPOCH":40119,"BSTAR":0.00024292589,"MEAN_MOTION_DOT":8.703e-5,"MEAN_MOTION_DDOT":0}]
